[{"OBJECT_NAME":"STARLINK-36813","OBJECT_ID":"2026-035P","EPOCH":"2026-03-09T22:00:01.999584","MEAN_MOTION":15.86759258,"ECCENTRICITY":0.0001378,"INCLINATION":97.2666,"RA_OF_ASC_NODE":1.2861,"ARG_OF_PERICENTER":84.7497,"MEAN_ANOMALY":39.4104,"EPHEMERIS_TYPE":0,"CLASSIFICATION_TYPE":"U","NORAD_CAT_ID":67892,"ELEMENT_SET_NO":999,"REV_AT_EPOCH":379,"BSTAR":-0.0063268094,"MEAN_MOTION_DOT":-0.01402208,"MEAN_MOTION_DDOT":0},{"OBJECT_NAME":"THORAD AGENA D DEB","OBJECT_ID":"1970-025PF","EPOCH":"2026-03-08T02:58:32.488032","MEAN_MOTION":15.64290563,"ECCENTRICITY":0.00166136,"INCLINATION":99.9335,"RA_OF_ASC_NODE":127.481,"ARG_OF_PERICENTER":247.6747,"MEAN_ANOMALY":112.2743,"EPHEMERIS_TYPE":0,"CLASSIFICATION_TYPE":"U","NORAD_CAT_ID":17717,"ELEMENT_SET_NO":999,"REV_AT_EPOCH":15016,"BSTAR":0.0052904272,"MEAN_MOTION_DOT":0.00540965,"MEAN_MOTION_DDOT":0}]
